0 ARIANE 2 DEB
1 33567U 89006BK  13280.40346187 -.00000033  00000-0  10000-3 0  4169
2 33567 007.9674 169.4927 7103877 325.0448 004.2284 02.26543454 74181
0 ARIANE 2 DEB
1 33567U 89006BK  13285.25885877 -.00000041  00000-0  10000-3 0  4171
2 33567 007.9706 167.6854 7102388 328.5577 003.8566 02.26530010 74297
0 ARIANE 2 DEB
1 33567U 89006BK  13293.20421960 -.00000060  00000-0  10000-3 0  4186
2 33567 007.9662 164.7436 7097265 334.3093 002.9483 02.26511472 74476
